LEMUR-2-LANGER2SPACE    
1 63358U 25061H   26116.86354610  .00004585  00000+0  25595-3 0  9998
2 63358  97.5586  92.9267 0018719  76.5617 283.7699 15.13890871 59854
LEMUR-2-BALTO           
1 63395U 25052BH  26116.68122755  .00006210  00000+0  50988-3 0  9993
2 63395  97.6941  10.9218 0001282 178.6081 181.5146 14.99549904 61040
LEMUR-2-KRISH           
1 64561U 25135AK  26116.83789977  .00005568  00000+0  50507-3 0  9995
2 64561  97.7669 232.1094 0001055 106.9046 253.2291 14.95714420 46243
LEMUR-2-HUBBLE-4        
1 64565U 25135AP  26116.27196051  .00001924  00000+0  19026-3 0  9995
2 64565  97.7635 230.8213 0003997 101.4457 258.7212 14.93049161 46122
LEMUR-2-SEJONG-2        
1 64586U 25135BL  26116.88555984  .00004883  00000+0  43742-3 0  9998
2 64586  97.7624 232.2959 0005762 128.0246 232.1496 14.96255113 46274
LEMUR-2-HUBBLE-5        
1 64840U 25135BT  26116.85581145  .00001909  00000+0  18448-3 0  9997
2 64840  97.7653 231.9586 0006623 139.8733 220.2977 14.93973087 46242
LEMUR-2-KARENDARRELL    
1 64841U 25135BU  26116.81067145  .00009738  00000+0  79916-3 0  9998
2 64841  97.7671 233.1344 0009301  47.8739 312.3273 14.99389014 46316
LEMUR-2-LUCILLE-ROSE    
1 65403U 25135BV  26116.85236897  .00009316  00000+0  76465-3 0  9997
2 65403  97.7646 233.1646 0010989  96.3294 263.9181 14.99384492 40944
LEMUR-2-AFFIE-WAUWIE    
1 66295U 25248C   26116.48131258  .00025354  00000+0  99328-3 0  9999
2 66295  45.3992  34.7594 0008873 152.4312 207.7049 15.25390686 26695
LEMUR-2-DEANANDMAEVE    
1 66678U 25276N   26116.74805208  .00009150  00000+0  43925-3 0  9995
2 66678  97.4228 191.0995 0006381 165.5738 194.5680 15.19066437 22609
LEMUR-2-STAS-GORBUK     
1 66686U 25276W   26116.75226531  .00007608  00000+0  36858-3 0  9994
2 66686  97.4265 191.1589 0005965 159.8397 200.3074 15.18808718 22601
LEMUR-2-TEODOR          
1 66768U 25276DG  26116.79238783  .00007080  00000+0  32722-3 0  9991
2 66768  97.4167 191.3702 0001257  74.2047 285.9327 15.20477526 22639
LEMUR-2-LAILA           
1 66776U 25276DQ  26116.77363439  .00007194  00000+0  33040-3 0  9995
2 66776  97.4191 191.4399 0001839  58.4993 301.6422 15.20690199 22633
LEMUR-2-CELIJO-SB-PK    
1 66781U 25276DW  26116.72494282  .00007222  00000+0  59526-3 0  9996
2 66781  97.5248 189.2105 0008668 306.1960  53.8462 14.99307665 14917
LEMUR-2-FINNIAN         
1 66782U 25276DX  26116.71644034  .00007007  00000+0  57116-3 0  9992
2 66782  97.5268 189.3888 0005267 285.5530  74.5112 14.99763007 12280
LEMUR-2-STARLIGHT       
1 66783U 25276DY  26116.76235819  .00006813  00000+0  57249-3 0  9996
2 66783  97.5292 189.1721 0012826 310.2346  49.7754 14.98547174 22496
