[{"OBJECT_NAME":"LEMUR-2-LANGER2SPACE","OBJECT_ID":"2025-061H","EPOCH":"2026-04-26T20:43:30.383040","MEAN_MOTION":15.13890871,"ECCENTRICITY":0.00187193,"INCLINATION":97.5586,"RA_OF_ASC_NODE":92.9267,"ARG_OF_PERICENTER":76.5617,"MEAN_ANOMALY":283.7699,"EPHEMERIS_TYPE":0,"CLASSIFICATION_TYPE":"U","NORAD_CAT_ID":63358,"ELEMENT_SET_NO":999,"REV_AT_EPOCH":5985,"BSTAR":0.00025594636,"MEAN_MOTION_DOT":4.585e-5,"MEAN_MOTION_DDOT":0},{"OBJECT_NAME":"LEMUR-2-BALTO","OBJECT_ID":"2025-052BH","EPOCH":"2026-04-26T16:20:58.060320","MEAN_MOTION":14.99549904,"ECCENTRICITY":0.00012825,"INCLINATION":97.6941,"RA_OF_ASC_NODE":10.9218,"ARG_OF_PERICENTER":178.6081,"MEAN_ANOMALY":181.5146,"EPHEMERIS_TYPE":0,"CLASSIFICATION_TYPE":"U","NORAD_CAT_ID":63395,"ELEMENT_SET_NO":999,"REV_AT_EPOCH":6104,"BSTAR":0.00050988373,"MEAN_MOTION_DOT":6.21e-5,"MEAN_MOTION_DDOT":0},{"OBJECT_NAME":"LEMUR-2-KRISH","OBJECT_ID":"2025-135AK","EPOCH":"2026-04-26T20:06:34.540128","MEAN_MOTION":14.9571442,"ECCENTRICITY":0.00010558,"INCLINATION":97.7669,"RA_OF_ASC_NODE":232.1094,"ARG_OF_PERICENTER":106.9046,"MEAN_ANOMALY":253.2291,"EPHEMERIS_TYPE":0,"CLASSIFICATION_TYPE":"U","NORAD_CAT_ID":64561,"ELEMENT_SET_NO":999,"REV_AT_EPOCH":4624,"BSTAR":0.00050506541,"MEAN_MOTION_DOT":5.568e-5,"MEAN_MOTION_DDOT":0},{"OBJECT_NAME":"LEMUR-2-HUBBLE-4","OBJECT_ID":"2025-135AP","EPOCH":"2026-04-26T06:31:37.388064","MEAN_MOTION":14.93049161,"ECCENTRICITY":0.00039971,"INCLINATION":97.7635,"RA_OF_ASC_NODE":230.8213,"ARG_OF_PERICENTER":101.4457,"MEAN_ANOMALY":258.7212,"EPHEMERIS_TYPE":0,"CLASSIFICATION_TYPE":"U","NORAD_CAT_ID":64565,"ELEMENT_SET_NO":999,"REV_AT_EPOCH":4612,"BSTAR":0.00019025838,"MEAN_MOTION_DOT":1.924e-5,"MEAN_MOTION_DDOT":0},{"OBJECT_NAME":"LEMUR-2-SEJONG-2","OBJECT_ID":"2025-135BL","EPOCH":"2026-04-26T21:15:12.370176","MEAN_MOTION":14.96255113,"ECCENTRICITY":0.00057627,"INCLINATION":97.7624,"RA_OF_ASC_NODE":232.2959,"ARG_OF_PERICENTER":128.0246,"MEAN_ANOMALY":232.1496,"EPHEMERIS_TYPE":0,"CLASSIFICATION_TYPE":"U","NORAD_CAT_ID":64586,"ELEMENT_SET_NO":999,"REV_AT_EPOCH":4627,"BSTAR":0.0004374213,"MEAN_MOTION_DOT":4.883e-5,"MEAN_MOTION_DDOT":0},{"OBJECT_NAME":"LEMUR-2-HUBBLE-5","OBJECT_ID":"2025-135BT","EPOCH":"2026-04-26T20:32:22.109280","MEAN_MOTION":14.93973087,"ECCENTRICITY":0.0006623,"INCLINATION":97.7653,"RA_OF_ASC_NODE":231.9586,"ARG_OF_PERICENTER":139.8733,"MEAN_ANOMALY":220.2977,"EPHEMERIS_TYPE":0,"CLASSIFICATION_TYPE":"U","NORAD_CAT_ID":64840,"ELEMENT_SET_NO":999,"REV_AT_EPOCH":4624,"BSTAR":0.00018448191,"MEAN_MOTION_DOT":1.909e-5,"MEAN_MOTION_DDOT":0},{"OBJECT_NAME":"LEMUR-2-KARENDARRELL","OBJECT_ID":"2025-135BU","EPOCH":"2026-04-26T19:27:22.013280","MEAN_MOTION":14.99389014,"ECCENTRICITY":0.00093017,"INCLINATION":97.7671,"RA_OF_ASC_NODE":233.1344,"ARG_OF_PERICENTER":47.8739,"MEAN_ANOMALY":312.3273,"EPHEMERIS_TYPE":0,"CLASSIFICATION_TYPE":"U","NORAD_CAT_ID":64841,"ELEMENT_SET_NO":999,"REV_AT_EPOCH":4631,"BSTAR":0.00079916125,"MEAN_MOTION_DOT":9.738e-5,"MEAN_MOTION_DDOT":0},{"OBJECT_NAME":"LEMUR-2-LUCILLE-ROSE","OBJECT_ID":"2025-135BV","EPOCH":"2026-04-26T20:27:24.679008","MEAN_MOTION":14.99384492,"ECCENTRICITY":0.00109894,"INCLINATION":97.7646,"RA_OF_ASC_NODE":233.1646,"ARG_OF_PERICENTER":96.3294,"MEAN_ANOMALY":263.9181,"EPHEMERIS_TYPE":0,"CLASSIFICATION_TYPE":"U","NORAD_CAT_ID":65403,"ELEMENT_SET_NO":999,"REV_AT_EPOCH":4094,"BSTAR":0.00076465081,"MEAN_MOTION_DOT":9.316e-5,"MEAN_MOTION_DDOT":0},{"OBJECT_NAME":"LEMUR-2-AFFIE-WAUWIE","OBJECT_ID":"2025-248C","EPOCH":"2026-04-26T11:33:05.406912","MEAN_MOTION":15.25390686,"ECCENTRICITY":0.00088739,"INCLINATION":45.3992,"RA_OF_ASC_NODE":34.7594,"ARG_OF_PERICENTER":152.4312,"MEAN_ANOMALY":207.7049,"EPHEMERIS_TYPE":0,"CLASSIFICATION_TYPE":"U","NORAD_CAT_ID":66295,"ELEMENT_SET_NO":999,"REV_AT_EPOCH":2669,"BSTAR":0.00099328387,"MEAN_MOTION_DOT":0.00025354,"MEAN_MOTION_DDOT":0},{"OBJECT_NAME":"LEMUR-2-DEANANDMAEVE","OBJECT_ID":"2025-276N","EPOCH":"2026-04-26T17:57:11.699712","MEAN_MOTION":15.19066437,"ECCENTRICITY":0.00063816,"INCLINATION":97.4228,"RA_OF_ASC_NODE":191.0995,"ARG_OF_PERICENTER":165.5738,"MEAN_ANOMALY":194.568,"EPHEMERIS_TYPE":0,"CLASSIFICATION_TYPE":"U","NORAD_CAT_ID":66678,"ELEMENT_SET_NO":999,"REV_AT_EPOCH":2260,"BSTAR":0.00043924955,"MEAN_MOTION_DOT":9.15e-5,"MEAN_MOTION_DDOT":0},{"OBJECT_NAME":"LEMUR-2-STAS-GORBUK","OBJECT_ID":"2025-276W","EPOCH":"2026-04-26T18:03:15.722784","MEAN_MOTION":15.18808718,"ECCENTRICITY":0.0005965,"INCLINATION":97.4265,"RA_OF_ASC_NODE":191.1589,"ARG_OF_PERICENTER":159.8397,"MEAN_ANOMALY":200.3074,"EPHEMERIS_TYPE":0,"CLASSIFICATION_TYPE":"U","NORAD_CAT_ID":66686,"ELEMENT_SET_NO":999,"REV_AT_EPOCH":2260,"BSTAR":0.00036858486,"MEAN_MOTION_DOT":7.608e-5,"MEAN_MOTION_DDOT":0},{"OBJECT_NAME":"LEMUR-2-TEODOR","OBJECT_ID":"2025-276DG","EPOCH":"2026-04-26T19:01:02.308512","MEAN_MOTION":15.20477526,"ECCENTRICITY":0.00012575,"INCLINATION":97.4167,"RA_OF_ASC_NODE":191.3702,"ARG_OF_PERICENTER":74.2047,"MEAN_ANOMALY":285.9327,"EPHEMERIS_TYPE":0,"CLASSIFICATION_TYPE":"U","NORAD_CAT_ID":66768,"ELEMENT_SET_NO":999,"REV_AT_EPOCH":2263,"BSTAR":0.00032722158,"MEAN_MOTION_DOT":7.08e-5,"MEAN_MOTION_DDOT":0},{"OBJECT_NAME":"LEMUR-2-LAILA","OBJECT_ID":"2025-276DQ","EPOCH":"2026-04-26T18:34:02.011296","MEAN_MOTION":15.20690199,"ECCENTRICITY":0.00018395,"INCLINATION":97.4191,"RA_OF_ASC_NODE":191.4399,"ARG_OF_PERICENTER":58.4993,"MEAN_ANOMALY":301.6422,"EPHEMERIS_TYPE":0,"CLASSIFICATION_TYPE":"U","NORAD_CAT_ID":66776,"ELEMENT_SET_NO":999,"REV_AT_EPOCH":2263,"BSTAR":0.00033040145,"MEAN_MOTION_DOT":7.194e-5,"MEAN_MOTION_DDOT":0},{"OBJECT_NAME":"LEMUR-2-CELIJO-SB-PK","OBJECT_ID":"2025-276DW","EPOCH":"2026-04-26T17:23:55.059648","MEAN_MOTION":14.99307665,"ECCENTRICITY":0.0008668,"INCLINATION":97.5248,"RA_OF_ASC_NODE":189.2105,"ARG_OF_PERICENTER":306.196,"MEAN_ANOMALY":53.8462,"EPHEMERIS_TYPE":0,"CLASSIFICATION_TYPE":"U","NORAD_CAT_ID":66781,"ELEMENT_SET_NO":999,"REV_AT_EPOCH":1491,"BSTAR":0.00059526172,"MEAN_MOTION_DOT":7.222e-5,"MEAN_MOTION_DDOT":0},{"OBJECT_NAME":"LEMUR-2-FINNIAN","OBJECT_ID":"2025-276DX","EPOCH":"2026-04-26T17:11:40.445376","MEAN_MOTION":14.99763007,"ECCENTRICITY":0.00052679,"INCLINATION":97.5268,"RA_OF_ASC_NODE":189.3888,"ARG_OF_PERICENTER":285.553,"MEAN_ANOMALY":74.5112,"EPHEMERIS_TYPE":0,"CLASSIFICATION_TYPE":"U","NORAD_CAT_ID":66782,"ELEMENT_SET_NO":999,"REV_AT_EPOCH":1228,"BSTAR":0.00057116414,"MEAN_MOTION_DOT":7.007e-5,"MEAN_MOTION_DDOT":0},{"OBJECT_NAME":"LEMUR-2-STARLIGHT","OBJECT_ID":"2025-276DY","EPOCH":"2026-04-26T18:17:47.747616","MEAN_MOTION":14.98547174,"ECCENTRICITY":0.0012826,"INCLINATION":97.5292,"RA_OF_ASC_NODE":189.1721,"ARG_OF_PERICENTER":310.2346,"MEAN_ANOMALY":49.7754,"EPHEMERIS_TYPE":0,"CLASSIFICATION_TYPE":"U","NORAD_CAT_ID":66783,"ELEMENT_SET_NO":999,"REV_AT_EPOCH":2249,"BSTAR":0.00057249302,"MEAN_MOTION_DOT":6.813e-5,"MEAN_MOTION_DDOT":0}]
